GOES 14                 
1 35491U 09033A   26114.52351322 -.00000051  00000+0  00000+0 0  9999
2 35491   1.5533  83.6501 0001661 308.4558 180.7696  1.00116007  6055
EWS-G2 (GOES 15)        
1 36411U 10008A   26114.51008083  .00000009  00000+0  00000+0 0  9990
2 36411   1.1363  83.8264 0003833  24.0239 351.5737  1.00272092 59108
GOES 16                 
1 41866U 16071A   26114.47680071 -.00000105  00000+0  00000+0 0  9992
2 41866   0.2065  85.2274 0001589 245.2022 309.0168  1.00270921 34565
GOES 17                 
1 43226U 18022A   26114.47983404 -.00000196  00000+0  00000+0 0  9998
2 43226   0.8015  86.4243 0000705 265.4579 303.8757  1.00271413 29889
GOES 18                 
1 51850U 22021A   26114.47047399  .00000082  00000+0  00000+0 0  9991
2 51850   0.0465  60.0113 0000318  24.3271 160.5247  1.00271760  6058
GOES 19                 
1 60133U 24119A   26114.48269405 -.00000262  00000+0  00000+0 0  9991
2 60133   0.0085 124.5537 0000481 318.3219 228.2090  1.00270506  6421
